<?xml version="1.0" encoding="UTF-8"?>
        <kml xmlns="http://www.opengis.net/kml/2.2" xmlns:gx="http://www.google.com/kml/ext/2.2" xmlns:kml="http://www.opengis.net/kml/2.2" xmlns:atom="http://www.w3.org/2005/Atom">
        <Document>
            <name>LFXU-LFOH-V2</name>
            <open>1</open>
            <StyleMap id="msn_ylw-pushpin">
                <Pair>
                    <key>normal</key>
                    <styleUrl>#sn_ylw-pushpin</styleUrl>
                </Pair>
                <Pair>
                    <key>highlight</key>
                    <styleUrl>#sh_ylw-pushpin</styleUrl>
                </Pair>
            </StyleMap>
            <StyleMap id="msn_ylw-pushpin0">
                <Pair>
                    <key>normal</key>
                    <styleUrl>#sn_ylw-pushpin0</styleUrl>
                </Pair>
                <Pair>
                    <key>highlight</key>
                    <styleUrl>#sh_ylw-pushpin0</styleUrl>
                </Pair>
            </StyleMap>
            <Style id="sh_ylw-pushpin0">
                <IconStyle>
                    <color>ff00ffff</color>
                    <scale>1.18182</scale>
                    <Icon>
                        <href>http://maps.google.com/mapfiles/kml/pushpin/ylw-pushpin.png</href>
                    </Icon>
                    <hotSpot x="20" y="2" xunits="pixels" yunits="pixels"/>
                </IconStyle>
                <LabelStyle>
                    <color>ff00ffff</color>
                </LabelStyle>
                <LineStyle>
                    <color>ff00ffff</color>
                </LineStyle>
            </Style>
            <Style id="s_ylw-pushpin_hl">
                <IconStyle>
                    <scale>1.18182</scale>
                    <Icon>
                        <href>http://maps.google.com/mapfiles/kml/pushpin/grn-pushpin.png</href>
                    </Icon>
                    <hotSpot x="20" y="2" xunits="pixels" yunits="pixels"/>
                </IconStyle>
                <LabelStyle>
                    <color>ff00ff00</color>
                </LabelStyle>
                <ListStyle>
                </ListStyle>
            </Style>
            <Style id="s_ylw-pushpin">
                <IconStyle>
                    <Icon>
                        <href>http://maps.google.com/mapfiles/kml/pushpin/grn-pushpin.png</href>
                    </Icon>
                    <hotSpot x="20" y="2" xunits="pixels" yunits="pixels"/>
                </IconStyle>
                <LabelStyle>
                    <color>ff00ff00</color>
                </LabelStyle>
                <ListStyle>
                </ListStyle>
            </Style>
            <Style id="sn_ylw-pushpin0">
                <IconStyle>
                    <color>ff00ffff</color>
                    <Icon>
                        <href>http://maps.google.com/mapfiles/kml/pushpin/ylw-pushpin.png</href>
                    </Icon>
                    <hotSpot x="20" y="2" xunits="pixels" yunits="pixels"/>
                </IconStyle>
                <LabelStyle>
                    <color>ff00ffff</color>
                </LabelStyle>
                <LineStyle>
                    <color>ff00ffff</color>
                </LineStyle>
            </Style>
            <Style id="sn_ylw-pushpin">
                <IconStyle>
                    <scale>1.1</scale>
                    <Icon>
                        <href>http://maps.google.com/mapfiles/kml/pushpin/ylw-pushpin.png</href>
                    </Icon>
                    <hotSpot x="20" y="2" xunits="pixels" yunits="pixels"/>
                </IconStyle>
                <LineStyle>
                    <color>ff00ffff</color>
                    <width>2.5</width>
                </LineStyle>
                <PolyStyle>
                    <color>7f00ffff</color>
                </PolyStyle>
            </Style>
            <Style id="sh_ylw-pushpin">
                <IconStyle>
                    <scale>1.3</scale>
                    <Icon>
                        <href>http://maps.google.com/mapfiles/kml/pushpin/ylw-pushpin.png</href>
                    </Icon>
                    <hotSpot x="20" y="2" xunits="pixels" yunits="pixels"/>
                </IconStyle>
                <LineStyle>
                    <color>ff00ffff</color>
                    <width>2.5</width>
                </LineStyle>
                <PolyStyle>
                    <color>7f00ffff</color>
                </PolyStyle>
            </Style>
            <StyleMap id="m_ylw-pushpin">
                <Pair>
                    <key>normal</key>
                    <styleUrl>#s_ylw-pushpin</styleUrl>
                </Pair>
                <Pair>
                    <key>highlight</key>
                    <styleUrl>#s_ylw-pushpin_hl</styleUrl>
                </Pair>
            </StyleMap>
            <Placemark>
                <name>Navigation</name>
                <styleUrl>#msn_ylw-pushpin</styleUrl>
                <LineString>
                    <extrude>1</extrude>
                    <tessellate>1</tessellate>
                    <altitudeMode>absolute</altitudeMode>
                    <coordinates>1.941667,48.998611,883.92,1.796111,48.97055,426.72,1.743056,48.93333,883.92,1.33413,48.866247,883.92,1.21667,48.8472,883.92,0.95,48.95,883.92,0.561859,49.028877,579.12,0.565556,49.1025,579.12,0.634007,49.150721,883.92,0.216111,49.214722,883.92,-0.102222,49.285556,883.92,0.045,49.339167,883.92,0.2725,49.436667,883.92,0.456151,49.468881,579.12,0.287176,49.595219,579.12,0.088119,49.533847,609.6</coordinates>
                </LineString>
            </Placemark>
            <Folder>
                <name>Points</name>
                <Style>
                    <ListStyle>
                        <listItemType>check</listItemType>
                        <bgColor>00ffffff</bgColor>
                        <maxSnippetLines>2</maxSnippetLines>
                    </ListStyle>
                </Style>
                
                <Placemark>
                    <name>LFXU - LES MUREAUX</name>
                    <visibility>0</visibility>
                    <description></description>
                    <LookAt>
                        <longitude>1.941667</longitude>
                        <latitude>48.998611</latitude>
                        <altitude>0</altitude>
                        <heading>0</heading>
                        <tilt>70</tilt>
                        <range>3000</range>
                        <gx:altitudeMode>relativeToSeaFloor</gx:altitudeMode>
                    </LookAt>
                    <styleUrl>#msn_ylw-pushpin0</styleUrl>
                    <Point>
                        <extrude>1</extrude>
                        <altitudeMode>absolute</altitudeMode>
                        <gx:drawOrder>1</gx:drawOrder>
                        <coordinates>1.941667,48.998611,883.92,</coordinates>
                    </Point>
                </Placemark>
                
                <Placemark>
                    <name>PTSW</name>
                    <visibility>0</visibility>
                    <description></description>
                    <LookAt>
                        <longitude>1.796111</longitude>
                        <latitude>48.97055</latitude>
                        <altitude>0</altitude>
                        <heading>0</heading>
                        <tilt>70</tilt>
                        <range>3000</range>
                        <gx:altitudeMode>relativeToSeaFloor</gx:altitudeMode>
                    </LookAt>
                    <styleUrl>#msn_ylw-pushpin0</styleUrl>
                    <Point>
                        <extrude>1</extrude>
                        <altitudeMode>absolute</altitudeMode>
                        <gx:drawOrder>1</gx:drawOrder>
                        <coordinates>1.796111,48.97055,426.72,</coordinates>
                    </Point>
                </Placemark>
                
                <Placemark>
                    <name>MEZER</name>
                    <visibility>0</visibility>
                    <description></description>
                    <LookAt>
                        <longitude>1.743056</longitude>
                        <latitude>48.93333</latitude>
                        <altitude>0</altitude>
                        <heading>0</heading>
                        <tilt>70</tilt>
                        <range>3000</range>
                        <gx:altitudeMode>relativeToSeaFloor</gx:altitudeMode>
                    </LookAt>
                    <styleUrl>#msn_ylw-pushpin0</styleUrl>
                    <Point>
                        <extrude>1</extrude>
                        <altitudeMode>absolute</altitudeMode>
                        <gx:drawOrder>1</gx:drawOrder>
                        <coordinates>1.743056,48.93333,883.92,</coordinates>
                    </Point>
                </Placemark>
                
                <Placemark>
                    <name>FDSW</name>
                    <visibility>0</visibility>
                    <description></description>
                    <LookAt>
                        <longitude>1.33413</longitude>
                        <latitude>48.866247</latitude>
                        <altitude>0</altitude>
                        <heading>0</heading>
                        <tilt>70</tilt>
                        <range>3000</range>
                        <gx:altitudeMode>relativeToSeaFloor</gx:altitudeMode>
                    </LookAt>
                    <styleUrl>#msn_ylw-pushpin0</styleUrl>
                    <Point>
                        <extrude>1</extrude>
                        <altitudeMode>absolute</altitudeMode>
                        <gx:drawOrder>1</gx:drawOrder>
                        <coordinates>1.33413,48.866247,883.92,</coordinates>
                    </Point>
                </Placemark>
                
                <Placemark>
                    <name>OEWS</name>
                    <visibility>0</visibility>
                    <description></description>
                    <LookAt>
                        <longitude>1.21667</longitude>
                        <latitude>48.8472</latitude>
                        <altitude>0</altitude>
                        <heading>0</heading>
                        <tilt>70</tilt>
                        <range>3000</range>
                        <gx:altitudeMode>relativeToSeaFloor</gx:altitudeMode>
                    </LookAt>
                    <styleUrl>#msn_ylw-pushpin0</styleUrl>
                    <Point>
                        <extrude>1</extrude>
                        <altitudeMode>absolute</altitudeMode>
                        <gx:drawOrder>1</gx:drawOrder>
                        <coordinates>1.21667,48.8472,883.92,</coordinates>
                    </Point>
                </Placemark>
                
                <Placemark>
                    <name>OEWC</name>
                    <visibility>0</visibility>
                    <description></description>
                    <LookAt>
                        <longitude>0.95</longitude>
                        <latitude>48.95</latitude>
                        <altitude>0</altitude>
                        <heading>0</heading>
                        <tilt>70</tilt>
                        <range>3000</range>
                        <gx:altitudeMode>relativeToSeaFloor</gx:altitudeMode>
                    </LookAt>
                    <styleUrl>#msn_ylw-pushpin0</styleUrl>
                    <Point>
                        <extrude>1</extrude>
                        <altitudeMode>absolute</altitudeMode>
                        <gx:drawOrder>1</gx:drawOrder>
                        <coordinates>0.95,48.95,883.92,</coordinates>
                    </Point>
                </Placemark>
                
                <Placemark>
                    <name>PDSS</name>
                    <visibility>0</visibility>
                    <description></description>
                    <LookAt>
                        <longitude>0.561859</longitude>
                        <latitude>49.028877</latitude>
                        <altitude>0</altitude>
                        <heading>0</heading>
                        <tilt>70</tilt>
                        <range>3000</range>
                        <gx:altitudeMode>relativeToSeaFloor</gx:altitudeMode>
                    </LookAt>
                    <styleUrl>#msn_ylw-pushpin0</styleUrl>
                    <Point>
                        <extrude>1</extrude>
                        <altitudeMode>absolute</altitudeMode>
                        <gx:drawOrder>1</gx:drawOrder>
                        <coordinates>0.561859,49.028877,579.12,</coordinates>
                    </Point>
                </Placemark>
                
                <Placemark>
                    <name>LFPD - BERNAY SAINT MARTIN</name>
                    <visibility>0</visibility>
                    <description></description>
                    <LookAt>
                        <longitude>0.565556</longitude>
                        <latitude>49.1025</latitude>
                        <altitude>0</altitude>
                        <heading>0</heading>
                        <tilt>70</tilt>
                        <range>3000</range>
                        <gx:altitudeMode>relativeToSeaFloor</gx:altitudeMode>
                    </LookAt>
                    <styleUrl>#msn_ylw-pushpin0</styleUrl>
                    <Point>
                        <extrude>1</extrude>
                        <altitudeMode>absolute</altitudeMode>
                        <gx:drawOrder>1</gx:drawOrder>
                        <coordinates>0.565556,49.1025,579.12,</coordinates>
                    </Point>
                </Placemark>
                
                <Placemark>
                    <name>PDNE</name>
                    <visibility>0</visibility>
                    <description></description>
                    <LookAt>
                        <longitude>0.634007</longitude>
                        <latitude>49.150721</latitude>
                        <altitude>0</altitude>
                        <heading>0</heading>
                        <tilt>70</tilt>
                        <range>3000</range>
                        <gx:altitudeMode>relativeToSeaFloor</gx:altitudeMode>
                    </LookAt>
                    <styleUrl>#msn_ylw-pushpin0</styleUrl>
                    <Point>
                        <extrude>1</extrude>
                        <altitudeMode>absolute</altitudeMode>
                        <gx:drawOrder>1</gx:drawOrder>
                        <coordinates>0.634007,49.150721,883.92,</coordinates>
                    </Point>
                </Placemark>
                
                <Placemark>
                    <name>RGSG</name>
                    <visibility>0</visibility>
                    <description></description>
                    <LookAt>
                        <longitude>0.216111</longitude>
                        <latitude>49.214722</latitude>
                        <altitude>0</altitude>
                        <heading>0</heading>
                        <tilt>70</tilt>
                        <range>3000</range>
                        <gx:altitudeMode>relativeToSeaFloor</gx:altitudeMode>
                    </LookAt>
                    <styleUrl>#msn_ylw-pushpin0</styleUrl>
                    <Point>
                        <extrude>1</extrude>
                        <altitudeMode>absolute</altitudeMode>
                        <gx:drawOrder>1</gx:drawOrder>
                        <coordinates>0.216111,49.214722,883.92,</coordinates>
                    </Point>
                </Placemark>
                
                <Placemark>
                    <name>RGWG</name>
                    <visibility>0</visibility>
                    <description></description>
                    <LookAt>
                        <longitude>-0.102222</longitude>
                        <latitude>49.285556</latitude>
                        <altitude>0</altitude>
                        <heading>0</heading>
                        <tilt>70</tilt>
                        <range>3000</range>
                        <gx:altitudeMode>relativeToSeaFloor</gx:altitudeMode>
                    </LookAt>
                    <styleUrl>#msn_ylw-pushpin0</styleUrl>
                    <Point>
                        <extrude>1</extrude>
                        <altitudeMode>absolute</altitudeMode>
                        <gx:drawOrder>1</gx:drawOrder>
                        <coordinates>-0.102222,49.285556,883.92,</coordinates>
                    </Point>
                </Placemark>
                
                <Placemark>
                    <name>RGWD</name>
                    <visibility>0</visibility>
                    <description></description>
                    <LookAt>
                        <longitude>0.045</longitude>
                        <latitude>49.339167</latitude>
                        <altitude>0</altitude>
                        <heading>0</heading>
                        <tilt>70</tilt>
                        <range>3000</range>
                        <gx:altitudeMode>relativeToSeaFloor</gx:altitudeMode>
                    </LookAt>
                    <styleUrl>#msn_ylw-pushpin0</styleUrl>
                    <Point>
                        <extrude>1</extrude>
                        <altitudeMode>absolute</altitudeMode>
                        <gx:drawOrder>1</gx:drawOrder>
                        <coordinates>0.045,49.339167,883.92,</coordinates>
                    </Point>
                </Placemark>
                
                <Placemark>
                    <name>RGED</name>
                    <visibility>0</visibility>
                    <description></description>
                    <LookAt>
                        <longitude>0.2725</longitude>
                        <latitude>49.436667</latitude>
                        <altitude>0</altitude>
                        <heading>0</heading>
                        <tilt>70</tilt>
                        <range>3000</range>
                        <gx:altitudeMode>relativeToSeaFloor</gx:altitudeMode>
                    </LookAt>
                    <styleUrl>#msn_ylw-pushpin0</styleUrl>
                    <Point>
                        <extrude>1</extrude>
                        <altitudeMode>absolute</altitudeMode>
                        <gx:drawOrder>1</gx:drawOrder>
                        <coordinates>0.2725,49.436667,883.92,</coordinates>
                    </Point>
                </Placemark>
                
                <Placemark>
                    <name>TANCA</name>
                    <visibility>0</visibility>
                    <description></description>
                    <LookAt>
                        <longitude>0.456151</longitude>
                        <latitude>49.468881</latitude>
                        <altitude>0</altitude>
                        <heading>0</heading>
                        <tilt>70</tilt>
                        <range>3000</range>
                        <gx:altitudeMode>relativeToSeaFloor</gx:altitudeMode>
                    </LookAt>
                    <styleUrl>#msn_ylw-pushpin0</styleUrl>
                    <Point>
                        <extrude>1</extrude>
                        <altitudeMode>absolute</altitudeMode>
                        <gx:drawOrder>1</gx:drawOrder>
                        <coordinates>0.456151,49.468881,579.12,</coordinates>
                    </Point>
                </Placemark>
                
                <Placemark>
                    <name>OYNW</name>
                    <visibility>0</visibility>
                    <description></description>
                    <LookAt>
                        <longitude>0.287176</longitude>
                        <latitude>49.595219</latitude>
                        <altitude>0</altitude>
                        <heading>0</heading>
                        <tilt>70</tilt>
                        <range>3000</range>
                        <gx:altitudeMode>relativeToSeaFloor</gx:altitudeMode>
                    </LookAt>
                    <styleUrl>#msn_ylw-pushpin0</styleUrl>
                    <Point>
                        <extrude>1</extrude>
                        <altitudeMode>absolute</altitudeMode>
                        <gx:drawOrder>1</gx:drawOrder>
                        <coordinates>0.287176,49.595219,579.12,</coordinates>
                    </Point>
                </Placemark>
                
                <Placemark>
                    <name>LFOH - LE HAVRE OCTEVILLE</name>
                    <visibility>0</visibility>
                    <description></description>
                    <LookAt>
                        <longitude>0.088119</longitude>
                        <latitude>49.533847</latitude>
                        <altitude>0</altitude>
                        <heading>0</heading>
                        <tilt>70</tilt>
                        <range>3000</range>
                        <gx:altitudeMode>relativeToSeaFloor</gx:altitudeMode>
                    </LookAt>
                    <styleUrl>#msn_ylw-pushpin0</styleUrl>
                    <Point>
                        <extrude>1</extrude>
                        <altitudeMode>absolute</altitudeMode>
                        <gx:drawOrder>1</gx:drawOrder>
                        <coordinates>0.088119,49.533847,609.6,</coordinates>
                    </Point>
                </Placemark>
                
            </Folder>
        </Document>
        </kml>