<?xml version="1.0" encoding="UTF-8"?>
        <kml xmlns="http://www.opengis.net/kml/2.2" xmlns:gx="http://www.google.com/kml/ext/2.2" xmlns:kml="http://www.opengis.net/kml/2.2" xmlns:atom="http://www.w3.org/2005/Atom">
        <Document>
            <name>LFXU-LFFU</name>
            <open>1</open>
            <StyleMap id="msn_ylw-pushpin">
                <Pair>
                    <key>normal</key>
                    <styleUrl>#sn_ylw-pushpin</styleUrl>
                </Pair>
                <Pair>
                    <key>highlight</key>
                    <styleUrl>#sh_ylw-pushpin</styleUrl>
                </Pair>
            </StyleMap>
            <StyleMap id="msn_ylw-pushpin0">
                <Pair>
                    <key>normal</key>
                    <styleUrl>#sn_ylw-pushpin0</styleUrl>
                </Pair>
                <Pair>
                    <key>highlight</key>
                    <styleUrl>#sh_ylw-pushpin0</styleUrl>
                </Pair>
            </StyleMap>
            <Style id="sh_ylw-pushpin0">
                <IconStyle>
                    <color>ff00ffff</color>
                    <scale>1.18182</scale>
                    <Icon>
                        <href>http://maps.google.com/mapfiles/kml/pushpin/ylw-pushpin.png</href>
                    </Icon>
                    <hotSpot x="20" y="2" xunits="pixels" yunits="pixels"/>
                </IconStyle>
                <LabelStyle>
                    <color>ff00ffff</color>
                </LabelStyle>
                <LineStyle>
                    <color>ff00ffff</color>
                </LineStyle>
            </Style>
            <Style id="s_ylw-pushpin_hl">
                <IconStyle>
                    <scale>1.18182</scale>
                    <Icon>
                        <href>http://maps.google.com/mapfiles/kml/pushpin/grn-pushpin.png</href>
                    </Icon>
                    <hotSpot x="20" y="2" xunits="pixels" yunits="pixels"/>
                </IconStyle>
                <LabelStyle>
                    <color>ff00ff00</color>
                </LabelStyle>
                <ListStyle>
                </ListStyle>
            </Style>
            <Style id="s_ylw-pushpin">
                <IconStyle>
                    <Icon>
                        <href>http://maps.google.com/mapfiles/kml/pushpin/grn-pushpin.png</href>
                    </Icon>
                    <hotSpot x="20" y="2" xunits="pixels" yunits="pixels"/>
                </IconStyle>
                <LabelStyle>
                    <color>ff00ff00</color>
                </LabelStyle>
                <ListStyle>
                </ListStyle>
            </Style>
            <Style id="sn_ylw-pushpin0">
                <IconStyle>
                    <color>ff00ffff</color>
                    <Icon>
                        <href>http://maps.google.com/mapfiles/kml/pushpin/ylw-pushpin.png</href>
                    </Icon>
                    <hotSpot x="20" y="2" xunits="pixels" yunits="pixels"/>
                </IconStyle>
                <LabelStyle>
                    <color>ff00ffff</color>
                </LabelStyle>
                <LineStyle>
                    <color>ff00ffff</color>
                </LineStyle>
            </Style>
            <Style id="sn_ylw-pushpin">
                <IconStyle>
                    <scale>1.1</scale>
                    <Icon>
                        <href>http://maps.google.com/mapfiles/kml/pushpin/ylw-pushpin.png</href>
                    </Icon>
                    <hotSpot x="20" y="2" xunits="pixels" yunits="pixels"/>
                </IconStyle>
                <LineStyle>
                    <color>ff00ffff</color>
                    <width>2.5</width>
                </LineStyle>
                <PolyStyle>
                    <color>7f00ffff</color>
                </PolyStyle>
            </Style>
            <Style id="sh_ylw-pushpin">
                <IconStyle>
                    <scale>1.3</scale>
                    <Icon>
                        <href>http://maps.google.com/mapfiles/kml/pushpin/ylw-pushpin.png</href>
                    </Icon>
                    <hotSpot x="20" y="2" xunits="pixels" yunits="pixels"/>
                </IconStyle>
                <LineStyle>
                    <color>ff00ffff</color>
                    <width>2.5</width>
                </LineStyle>
                <PolyStyle>
                    <color>7f00ffff</color>
                </PolyStyle>
            </Style>
            <StyleMap id="m_ylw-pushpin">
                <Pair>
                    <key>normal</key>
                    <styleUrl>#s_ylw-pushpin</styleUrl>
                </Pair>
                <Pair>
                    <key>highlight</key>
                    <styleUrl>#s_ylw-pushpin_hl</styleUrl>
                </Pair>
            </StyleMap>
            <Placemark>
                <name>Navigation</name>
                <styleUrl>#msn_ylw-pushpin</styleUrl>
                <LineString>
                    <extrude>1</extrude>
                    <tessellate>1</tessellate>
                    <altitudeMode>absolute</altitudeMode>
                    <coordinates>1.941667,48.998611,328.79999024640034,1.945210038513339,48.98092755453786,426.72,1.953162,48.941239,426.72,1.930541,48.834312,426.72,1.920533647891773,48.813106735829294,548.64,1.872139,48.71056,548.64,1.931751,48.552796,548.64,1.9414267507128962,48.5257884617861,701.04,1.993057,48.381675,701.04,2.0028549141725573,48.33774268290696,944.88,2.060833,48.077778,944.88,2.186213,47.605899,944.88,2.1890514587174095,47.594963885078734,883.92,2.3577546031118106,46.94503783182429,883.92,2.376944,46.871111,471.79999024640034</coordinates>
                </LineString>
            </Placemark>
                <Folder>
        <name>Points</name>
        <Placemark>
            <name>LFXU - LES MUREAUX</name>
            <visibility>1</visibility>
            <description>Waypoint 1</description>
            <styleUrl>#msn_ylw-pushpin</styleUrl>
            <Point>
                <extrude>1</extrude>
                <altitudeMode>absolute</altitudeMode>
                <gx:drawOrder>1</gx:drawOrder>
                <coordinates>1.941667,48.998611,328.79999024640034,</coordinates>
            </Point>
        </Placemark>
        <Placemark>
            <name>Climb_MOR1V_1400</name>
            <visibility>0</visibility>
            <description>Climb point</description>
            <styleUrl>#msn_grn-pushpin</styleUrl>
            <Point>
                <extrude>1</extrude>
                <altitudeMode>absolute</altitudeMode>
                <gx:drawOrder>1</gx:drawOrder>
                <coordinates>1.945210038513339,48.98092755453786,426.72,</coordinates>
            </Point>
        </Placemark>
        <Placemark>
            <name>MOR1V</name>
            <visibility>1</visibility>
            <description>Waypoint 3</description>
            <styleUrl>#msn_ylw-pushpin</styleUrl>
            <Point>
                <extrude>1</extrude>
                <altitudeMode>absolute</altitudeMode>
                <gx:drawOrder>1</gx:drawOrder>
                <coordinates>1.953162,48.941239,426.72,</coordinates>
            </Point>
        </Placemark>
        <Placemark>
            <name>PXSW</name>
            <visibility>1</visibility>
            <description>Waypoint 4</description>
            <styleUrl>#msn_ylw-pushpin</styleUrl>
            <Point>
                <extrude>1</extrude>
                <altitudeMode>absolute</altitudeMode>
                <gx:drawOrder>1</gx:drawOrder>
                <coordinates>1.930541,48.834312,426.72,</coordinates>
            </Point>
        </Placemark>
        <Placemark>
            <name>Climb_PXSW_1800</name>
            <visibility>0</visibility>
            <description>Climb point</description>
            <styleUrl>#msn_grn-pushpin</styleUrl>
            <Point>
                <extrude>1</extrude>
                <altitudeMode>absolute</altitudeMode>
                <gx:drawOrder>1</gx:drawOrder>
                <coordinates>1.920533647891773,48.813106735829294,548.64,</coordinates>
            </Point>
        </Placemark>
        <Placemark>
            <name>HOLAN</name>
            <visibility>1</visibility>
            <description>Waypoint 6</description>
            <styleUrl>#msn_ylw-pushpin</styleUrl>
            <Point>
                <extrude>1</extrude>
                <altitudeMode>absolute</altitudeMode>
                <gx:drawOrder>1</gx:drawOrder>
                <coordinates>1.872139,48.71056,548.64,</coordinates>
            </Point>
        </Placemark>
        <Placemark>
            <name>ARNOU</name>
            <visibility>1</visibility>
            <description>Waypoint 7</description>
            <styleUrl>#msn_ylw-pushpin</styleUrl>
            <Point>
                <extrude>1</extrude>
                <altitudeMode>absolute</altitudeMode>
                <gx:drawOrder>1</gx:drawOrder>
                <coordinates>1.931751,48.552796,548.64,</coordinates>
            </Point>
        </Placemark>
        <Placemark>
            <name>Climb_ARNOU_2300</name>
            <visibility>0</visibility>
            <description>Climb point</description>
            <styleUrl>#msn_grn-pushpin</styleUrl>
            <Point>
                <extrude>1</extrude>
                <altitudeMode>absolute</altitudeMode>
                <gx:drawOrder>1</gx:drawOrder>
                <coordinates>1.9414267507128962,48.5257884617861,701.04,</coordinates>
            </Point>
        </Placemark>
        <Placemark>
            <name>OXWW</name>
            <visibility>1</visibility>
            <description>Waypoint 9</description>
            <styleUrl>#msn_ylw-pushpin</styleUrl>
            <Point>
                <extrude>1</extrude>
                <altitudeMode>absolute</altitudeMode>
                <gx:drawOrder>1</gx:drawOrder>
                <coordinates>1.993057,48.381675,701.04,</coordinates>
            </Point>
        </Placemark>
        <Placemark>
            <name>Climb_OXWW_3100</name>
            <visibility>0</visibility>
            <description>Climb point</description>
            <styleUrl>#msn_grn-pushpin</styleUrl>
            <Point>
                <extrude>1</extrude>
                <altitudeMode>absolute</altitudeMode>
                <gx:drawOrder>1</gx:drawOrder>
                <coordinates>2.0028549141725573,48.33774268290696,944.88,</coordinates>
            </Point>
        </Placemark>
        <Placemark>
            <name>LFFF/OE</name>
            <visibility>1</visibility>
            <description>Waypoint 11</description>
            <styleUrl>#msn_ylw-pushpin</styleUrl>
            <Point>
                <extrude>1</extrude>
                <altitudeMode>absolute</altitudeMode>
                <gx:drawOrder>1</gx:drawOrder>
                <coordinates>2.060833,48.077778,944.88,</coordinates>
            </Point>
        </Placemark>
        <Placemark>
            <name>BEVRO</name>
            <visibility>1</visibility>
            <description>Waypoint 12</description>
            <styleUrl>#msn_ylw-pushpin</styleUrl>
            <Point>
                <extrude>1</extrude>
                <altitudeMode>absolute</altitudeMode>
                <gx:drawOrder>1</gx:drawOrder>
                <coordinates>2.186213,47.605899,944.88,</coordinates>
            </Point>
        </Placemark>
        <Placemark>
            <name>Descent_BEVRO_2900</name>
            <visibility>0</visibility>
            <description>Descent point</description>
            <styleUrl>#msn_red-pushpin</styleUrl>
            <Point>
                <extrude>1</extrude>
                <altitudeMode>absolute</altitudeMode>
                <gx:drawOrder>1</gx:drawOrder>
                <coordinates>2.1890514587174095,47.594963885078734,883.92,</coordinates>
            </Point>
        </Placemark>
        <Placemark>
            <name>Descent_2900_CHER</name>
            <visibility>0</visibility>
            <description>Descent point</description>
            <styleUrl>#msn_red-pushpin</styleUrl>
            <Point>
                <extrude>1</extrude>
                <altitudeMode>absolute</altitudeMode>
                <gx:drawOrder>1</gx:drawOrder>
                <coordinates>2.3577546031118106,46.94503783182429,883.92,</coordinates>
            </Point>
        </Placemark>
        <Placemark>
            <name>LFFU - CHATEAUNEUF SUR CHER</name>
            <visibility>1</visibility>
            <description>Waypoint 15</description>
            <styleUrl>#msn_ylw-pushpin</styleUrl>
            <Point>
                <extrude>1</extrude>
                <altitudeMode>absolute</altitudeMode>
                <gx:drawOrder>1</gx:drawOrder>
                <coordinates>2.376944,46.871111,471.79999024640034,</coordinates>
            </Point>
        </Placemark>
    </Folder>
        </Document>
        </kml>