<kml xmlns="http://www.opengis.net/kml/2.2">
  <Document>
    <name>Airspace: AVORD 1.1</name>
    <description>
        Airspace Volume: AVORD 1.1
        Class: D
        Type: TMA
        Min Altitude: 2100 FT
        Max Altitude: 6500 FT (FL65)
        </description>
    <Placemark>
      <name>AVORD 1.1 (TMA) Class D</name>
      <description>Polygon boundary with 8 vertices
3D Volume: 2100 FT to 6500 FT (FL65)
Altitude range: 2100 FT - 6500 FT (FL65) AMSL</description>
      <MultiGeometry>
        <Polygon>
          <altitudeMode>absolute</altitudeMode>
          <outerBoundaryIs>
            <LinearRing>
              <coordinates>2.3780555555555556,47.353611111111114,1981.2 2.9916666666666667,47.353611111111114,1981.2 3.1855555555555553,47.26138888888889,1981.2 3.236111111111111,47.18944444444444,1981.2 3.19,47.12138888888889,1981.2 3.1841666666666666,47.1075,1981.2 3.1008333333333336,47.0925,1981.2 2.257222222222222,47.23833333333334,1981.2 2.3780555555555556,47.353611111111114,1981.2</coordinates>
            </LinearRing>
          </outerBoundaryIs>
        </Polygon>
        <Polygon>
          <altitudeMode>absolute</altitudeMode>
          <outerBoundaryIs>
            <LinearRing>
              <coordinates>2.3780555555555556,47.353611111111114,640.08 2.257222222222222,47.23833333333334,640.08 3.1008333333333336,47.0925,640.08 3.1841666666666666,47.1075,640.08 3.19,47.12138888888889,640.08 3.236111111111111,47.18944444444444,640.08 3.1855555555555553,47.26138888888889,640.08 2.9916666666666667,47.353611111111114,640.08 2.3780555555555556,47.353611111111114,640.08</coordinates>
            </LinearRing>
          </outerBoundaryIs>
        </Polygon>
        <Polygon>
          <altitudeMode>absolute</altitudeMode>
          <outerBoundaryIs>
            <LinearRing>
              <coordinates>2.3780555555555556,47.353611111111114,640.08 2.9916666666666667,47.353611111111114,640.08 2.9916666666666667,47.353611111111114,1981.2 2.3780555555555556,47.353611111111114,1981.2 2.3780555555555556,47.353611111111114,640.08</coordinates>
            </LinearRing>
          </outerBoundaryIs>
        </Polygon>
        <Polygon>
          <altitudeMode>absolute</altitudeMode>
          <outerBoundaryIs>
            <LinearRing>
              <coordinates>2.9916666666666667,47.353611111111114,640.08 3.1855555555555553,47.26138888888889,640.08 3.1855555555555553,47.26138888888889,1981.2 2.9916666666666667,47.353611111111114,1981.2 2.9916666666666667,47.353611111111114,640.08</coordinates>
            </LinearRing>
          </outerBoundaryIs>
        </Polygon>
        <Polygon>
          <altitudeMode>absolute</altitudeMode>
          <outerBoundaryIs>
            <LinearRing>
              <coordinates>3.1855555555555553,47.26138888888889,640.08 3.236111111111111,47.18944444444444,640.08 3.236111111111111,47.18944444444444,1981.2 3.1855555555555553,47.26138888888889,1981.2 3.1855555555555553,47.26138888888889,640.08</coordinates>
            </LinearRing>
          </outerBoundaryIs>
        </Polygon>
        <Polygon>
          <altitudeMode>absolute</altitudeMode>
          <outerBoundaryIs>
            <LinearRing>
              <coordinates>3.236111111111111,47.18944444444444,640.08 3.19,47.12138888888889,640.08 3.19,47.12138888888889,1981.2 3.236111111111111,47.18944444444444,1981.2 3.236111111111111,47.18944444444444,640.08</coordinates>
            </LinearRing>
          </outerBoundaryIs>
        </Polygon>
        <Polygon>
          <altitudeMode>absolute</altitudeMode>
          <outerBoundaryIs>
            <LinearRing>
              <coordinates>3.19,47.12138888888889,640.08 3.1841666666666666,47.1075,640.08 3.1841666666666666,47.1075,1981.2 3.19,47.12138888888889,1981.2 3.19,47.12138888888889,640.08</coordinates>
            </LinearRing>
          </outerBoundaryIs>
        </Polygon>
        <Polygon>
          <altitudeMode>absolute</altitudeMode>
          <outerBoundaryIs>
            <LinearRing>
              <coordinates>3.1841666666666666,47.1075,640.08 3.1008333333333336,47.0925,640.08 3.1008333333333336,47.0925,1981.2 3.1841666666666666,47.1075,1981.2 3.1841666666666666,47.1075,640.08</coordinates>
            </LinearRing>
          </outerBoundaryIs>
        </Polygon>
        <Polygon>
          <altitudeMode>absolute</altitudeMode>
          <outerBoundaryIs>
            <LinearRing>
              <coordinates>3.1008333333333336,47.0925,640.08 2.257222222222222,47.23833333333334,640.08 2.257222222222222,47.23833333333334,1981.2 3.1008333333333336,47.0925,1981.2 3.1008333333333336,47.0925,640.08</coordinates>
            </LinearRing>
          </outerBoundaryIs>
        </Polygon>
        <Polygon>
          <altitudeMode>absolute</altitudeMode>
          <outerBoundaryIs>
            <LinearRing>
              <coordinates>2.257222222222222,47.23833333333334,640.08 2.3780555555555556,47.353611111111114,640.08 2.3780555555555556,47.353611111111114,1981.2 2.257222222222222,47.23833333333334,1981.2 2.257222222222222,47.23833333333334,640.08</coordinates>
            </LinearRing>
          </outerBoundaryIs>
        </Polygon>
      </MultiGeometry>
      <Style>
        <PolyStyle>
          <color>40ff0000</color>
          <fill>1</fill>
          <outline>1</outline>
        </PolyStyle>
        <LineStyle>
          <color>ffff0000</color>
          <width>2</width>
        </LineStyle>
      </Style>
    </Placemark>
  </Document>
</kml>